GPS BIIR-2  (PRN 13)    
1 24876U 97035A   17245.34869889  .00000038  00000-0  00000+0 0  9995
2 24876  55.5375 224.0743 0032743 102.0028 258.3554  2.00560959147373
GPS BIIR-3  (PRN 11)    
1 25933U 99055A   17245.46467042 -.00000013  00000-0  00000+0 0  9996
2 25933  51.6866  74.2543 0168348  96.7089 275.9101  2.00556870131193
GPS BIIR-4  (PRN 20)    
1 26360U 00025A   17245.33904049 -.00000033  00000-0  00000+0 0  9991
2 26360  53.1290 151.6733 0042721  95.0532 289.8678  2.00556354126888
GPS BIIR-5  (PRN 28)    
1 26407U 00040A   17245.41822097 -.00000078  00000-0  00000+0 0  9990
2 26407  56.6068 342.1395 0200532 270.2696  94.3358  2.00566257125567
GPS BIIR-6  (PRN 14)    
1 26605U 00071A   17245.35689959  .00000034  00000-0  00000+0 0  9996
2 26605  55.1093 221.7759 0095700 248.8001 339.7297  2.00561724123161
GPS BIIR-7  (PRN 18)    
1 26690U 01004A   17245.28679510 -.00000034  00000-0  00000+0 0  9992
2 26690  53.0499 154.6092 0183569 257.9382  31.6302  2.00568519121566
GPS BIIR-8  (PRN 16)    
1 27663U 03005A   17245.37091017 -.00000078  00000-0  00000+0 0  9994
2 27663  56.6747 341.8848 0091711  25.2118  60.6160  2.00554815106922
GPS BIIR-9  (PRN 21)    
1 27704U 03010A   17245.21885418 -.00000002  00000-0  00000+0 0  9992
2 27704  53.9037  95.0231 0241593 265.7828  34.2379  2.00570268105724
GPS BIIR-10 (PRN 22)    
1 28129U 03058A   17245.04319806 -.00000036  00000-0  00000+0 0  9997
2 28129  52.9398 154.6010 0075410 263.7985  95.3682  2.00555330100416
GPS BIIR-11 (PRN 19)    
1 28190U 04009A   17245.48328389 -.00000037  00000-0  00000+0 0  9997
2 28190  56.0463  42.8602 0099136  60.0353 261.8570  2.00563561 98603
GPS BIIR-12 (PRN 23)    
1 28361U 04023A   17245.39987130  .00000024  00000-0  00000+0 0  9993
2 28361  54.0982 216.8085 0120460 221.8531 309.4811  2.00561368 96681
GPS BIIR-13 (PRN 02)    
1 28474U 04045A   17245.15751646 -.00000002  00000-0  00000+0 0  9994
2 28474  54.2807  94.5270 0172158 247.9675 110.3147  2.00575103 94041
GPS BIIRM-1 (PRN 17)    
1 28874U 05038A   17245.50257063 -.00000041  00000-0  00000+0 0  9997
2 28874  56.1997  40.1322 0120225 254.4382 103.3681  2.00563425 87453
GPS BIIRM-2 (PRN 31)    
1 29486U 06042A   17245.32324711  .00000032  00000-0  00000+0 0  9997
2 29486  55.3505 279.2014 0085538 344.3335 162.0505  2.00552414 80160
GPS BIIRM-3 (PRN 12)    
1 29601U 06052A   17245.06156129 -.00000079  00000-0  00000+0 0  9996
2 29601  56.6482 340.8156 0063662  51.1779 309.4209  2.00558041 79076
GPS BIIRM-4 (PRN 15)    
1 32260U 07047A   17244.88145357  .00000020  00000-0  00000+0 0  9991
2 32260  53.2240 213.1098 0094036  33.0589 327.5041  2.00571285 72455
GPS BIIRM-5 (PRN 29)    
1 32384U 07062A   17245.54581039 -.00000040  00000-0  00000+0 0  9993
2 32384  56.2660  40.7176 0003987  27.6413 230.9275  2.00575652 71190
GPS BIIRM-6 (PRN 07)    
1 32711U 08012A   17245.28714312  .00000032  00000-0  00000+0 0  9996
2 32711  55.0799 278.5517 0111467 214.0057 145.3441  2.00557889 69376
GPS BIIRM-8 (PRN 05)    
1 35752U 09043A   17245.14700293 -.00000034  00000-0  00000+0 0  9990
2 35752  54.2623 156.3988 0050766  31.5892 249.1131  2.00546387 58951
GPS BIIF-1  (PRN 25)    
1 36585U 10022A   17245.17354934 -.00000076  00000-0  00000+0 0  9990
2 36585  55.9514 337.5753 0063889  46.1694   5.7283  2.00553781 53201
GPS BIIF-2  (PRN 01)    
1 37753U 11036A   17245.51445630  .00000005  00000-0  00000+0 0  9997
2 37753  55.4857  97.6902 0068822  33.6075 348.0272  2.00562940 44893
GPS BIIF-3  (PRN 24)    
1 38833U 12053A   17243.47978956  .00000025  00000-0  00000+0 0  9994
2 38833  54.1096 275.4671 0057433  24.7794 335.5587  2.00562915 35924
GPS BIIF-4  (PRN 27)    
1 39166U 13023A   17245.32688977 -.00000047  00000-0  00000+0 0  9994
2 39166  55.9050  37.1294 0048357  20.3216 339.8875  2.00564472 31498
GPS BIIF-5  (PRN 30)    
1 39533U 14008A   17245.33053655  .00000026  00000-0  00000+0 0  9992
2 39533  54.2606 280.6986 0030761 188.3594 171.6601  2.00567997 25859
GPS BIIF-6  (PRN 06)    
1 39741U 14026A   17245.11088961  .00000001  00000-0  00000+0 0  9990
2 39741  55.4717  97.2271 0007871 290.1132  69.8907  2.00556217 24131
GPS BIIF-7  (PRN 09)    
1 40105U 14045A   17245.19772593  .00000027  00000-0  00000+0 0  9994
2 40105  54.6223 216.7646 0005586 117.5397 242.4997  2.00550440 22587
GPS BIIF-8  (PRN 03)    
1 40294U 14068A   17245.07555063 -.00000033  00000-0  00000+0 0  9994
2 40294  55.0108 157.4417 0008810   7.3597 352.6747  2.00564251 20806
GPS BIIF-9  (PRN 26)    
1 40534U 15013A   17245.21350101 -.00000076  00000-0  00000+0 0  9991
2 40534  54.9033 336.5914 0018683 353.6260   6.3895  2.00553768 17874
GPS BIIF-10  (PRN 08)   
1 40730U 15033A   17245.36798068 -.00000048  00000-0  00000+0 0  9994
2 40730  55.4387  36.7640 0027143 320.2636  39.5553  2.00562838 15632
GPS BIIF-11  (PRN 10)   
1 41019U 15062A   17244.92389406 -.00000034  00000-0  00000+0 0  9995
2 41019  55.0191 157.2390 0028003 202.1918 157.7087  2.00563740 13445
GPS BIIF-12  (PRN 32)   
1 41328U 16007A   17245.01484058  .00000028  00000-0  00000+0 0  9990
2 41328  54.8781 216.9827 0015631 221.3390 138.5261  2.00553666 11500
